NORAD_CAT_ID,OBJECT_NAME,OBJECT_TYPE,EPOCH,MEAN_MOTION,ECCENTRICITY,INCLINATION,RA_OF_ASC_NODE,ARG_OF_PERICENTER,MEAN_ANOMALY,BSTAR,MEAN_MOTION_DOT,MEAN_MOTION_DDOT,TLE_LINE0,TLE_LINE1,TLE_LINE2,SEMIMAJOR_AXIS,PERIOD,APOGEE,PERIGEE,DECAYED
51990.0,STARLINK-3657,PAYLOAD,2024-03-27 22:19:26,15.08839876,0.0001605,53.2174,334.3303,80.2765,279.8408,0.00027752,4.131e-05,0.0,0 STARLINK-3657,1 51990U 22025AL  24087.93017077  .00004131  00000-0  27752-3 0  9995,2 51990  53.2174 334.3303 0001605  80.2765 279.8408 15.08839876113881,6917.881,95.438,540.856,538.635,0.0
51990.0,STARLINK-3657,PAYLOAD,2024-03-28 09:27:08,15.08844227,0.0001396,53.2178,332.2506,75.4797,284.635,0.00016778,2.384e-05,0.0,0 STARLINK-3657,1 51990U 22025AL  24088.39384736  .00002384  00000-0  16778-3 0  9999,2 51990  53.2178 332.2506 0001396  75.4797 284.6350 15.08844227113959,6917.867,95.437,540.698,538.767,0.0
51990.0,STARLINK-3657,PAYLOAD,2024-03-28 22:10:13,15.08832507,3.38e-05,53.2177,329.869,72.7124,287.3905,-0.00020675,-3.576e-05,0.0,0 STARLINK-3657,1 51990U 22025AL  24088.92376852 -.00003576  00000-0 -20675-3 0  9995,2 51990  53.2177 329.8690 0000338  72.7124 287.3905 15.08832507114037,6917.903,95.438,540.002,539.534,0.0
51990.0,STARLINK-3657,PAYLOAD,2024-03-29 01:20:59,15.08850757,0.0001504,53.2185,329.2729,55.936,304.1775,-2.8553e-06,-3.33e-06,0.0,0 STARLINK-3657,1 51990U 22025AL  24089.05624071 -.00000333  00000-0 -28553-5 0  9992,2 51990  53.2185 329.2729 0001504  55.9360 304.1775 15.08850757115158,6917.848,95.437,540.753,538.672,0.0
51990.0,STARLINK-3657,PAYLOAD,2024-03-29 09:17:54,15.08847013,0.0001196,53.2172,327.7896,77.9231,282.1895,-3.1505e-05,-7.89e-06,0.0,0 STARLINK-3657,1 51990U 22025AL  24089.38744027 -.00000789  00000-0 -31505-4 0  9997,2 51990  53.2172 327.7896 0001196  77.9231 282.1895 15.08847013114103,6917.859,95.437,540.551,538.897,0.0
51990.0,STARLINK-3657,PAYLOAD,2024-03-29 22:00:59,15.08846739,0.0001272,53.2183,325.4077,91.5996,268.5142,0.00010898,1.447e-05,0.0,0 STARLINK-3657,1 51990U 22025AL  24089.91736027  .00001447  00000-0  10898-3 0  9998,2 51990  53.2183 325.4077 0001272  91.5996 268.5142 15.08846739114181,6917.86,95.437,540.605,538.845,0.0
51990.0,STARLINK-3657,PAYLOAD,2024-03-30 09:08:42,15.08842768,0.0001366,53.2189,323.3281,83.5998,276.515,6.5893e-05,7.61e-06,0.0,0 STARLINK-3657,1 51990U 22025AL  24090.38104269  .00000761  00000-0  65893-4 0  9992,2 51990  53.2189 323.3281 0001366  83.5998 276.5150 15.08842768115354,6917.872,95.437,540.682,538.792,0.0
51990.0,STARLINK-3657,PAYLOAD,2024-03-30 21:51:47,15.08841327,0.0001405,53.2177,320.9495,86.8468,273.2684,0.00010798,1.431e-05,0.0,0 STARLINK-3657,1 51990U 22025AL  24090.91096464  .00001431  00000-0  10798-3 0  9996,2 51990  53.2177 320.9495 0001405  86.8468 273.2684 15.08841327114336,6917.876,95.437,540.713,538.769,0.0
51990.0,STARLINK-3657,PAYLOAD,2024-03-31 01:02:35,15.08810523,0.0001876,53.2186,320.3532,89.3764,270.7443,0.0011891,0.00018672,0.0,0 STARLINK-3657,1 51990U 22025AL  24091.04346233  .00018672  00000-0  11891-2 0  9992,2 51990  53.2186 320.3532 0001876  89.3764 270.7443 15.08810523115454,6917.97,95.439,541.133,538.538,0.0
51990.0,STARLINK-3657,PAYLOAD,2024-03-31 21:42:33,15.08849874,0.0001449,53.2163,316.4876,91.9946,268.1212,0.00018353,2.635e-05,0.0,0 STARLINK-3657,1 51990U 22025AL  24091.90455779  .00002635  00000-0  18353-3 0  9996,2 51990  53.2163 316.4876 0001449  91.9946 268.1212 15.08849874115583,6917.85,95.437,540.718,538.713,0.0
51990.0,STARLINK-3657,PAYLOAD,2024-04-01 15:11:48,15.08838756,0.0001392,53.2162,313.2171,87.4191,272.6961,0.0001084,1.438e-05,0.0,0 STARLINK-3657,1 51990U 22025AL  24092.63320367  .00001438  00000-0  10840-3 0  9994,2 51990  53.2162 313.2171 0001392  87.4191 272.6961 15.08838756114592,6917.884,95.438,540.712,538.786,0.0
51990.0,STARLINK-3657,PAYLOAD,2024-04-01 21:33:21,15.08839658,0.0001284,53.2157,312.0278,93.0892,267.0247,0.00010526,1.388e-05,0.0,0 STARLINK-3657,1 51990U 22025AL  24092.89816360  .00001388  00000-0  10526-3 0  9990,2 51990  53.2157 312.0278 0001284  93.0892 267.0247 15.08839658115736,6917.881,95.438,540.635,538.858,0.0
51990.0,STARLINK-3657,PAYLOAD,2024-04-02 07:05:40,15.08840541,0.000136,53.2166,310.242,86.931,273.1837,6.1421e-05,6.9e-06,0.0,0 STARLINK-3657,1 51990U 22025AL  24093.29560311  .00000690  00000-0  61421-4 0  9993,2 51990  53.2166 310.2420 0001360  86.9310 273.1837 15.08840541114696,6917.879,95.438,540.685,538.803,0.0
51990.0,STARLINK-3657,PAYLOAD,2024-04-02 21:24:08,15.08834088,0.0001449,53.2177,307.571,104.3475,255.7678,-4.7571e-05,-1.045e-05,0.0,0 STARLINK-3657,1 51990U 22025AL  24093.89176821 -.00001045  00000-0 -47571-4 0  9995,2 51990  53.2177 307.5710 0001449 104.3475 255.7678 15.08834088115884,6917.898,95.438,540.766,538.761,0.0
51990.0,STARLINK-3657,PAYLOAD,2024-04-03 14:53:23,15.08838217,0.0001467,53.2182,304.2993,105.5449,254.5705,0.00011187,1.493e-05,0.0,0 STARLINK-3657,1 51990U 22025AL  24094.62040956  .00001493  00000-0  11187-3 0  9994,2 51990  53.2182 304.2993 0001467 105.5449 254.5705 15.08838217114897,6917.886,95.438,540.766,538.736,0.0
51990.0,STARLINK-3657,PAYLOAD,2024-04-03 19:39:32,15.08839392,0.000146,53.2181,303.4072,105.6468,254.4686,0.0001141,1.528e-05,0.0,0 STARLINK-3657,1 51990U 22025AL  24094.81912909  .00001528  00000-0  11410-3 0  9999,2 51990  53.2181 303.4072 0001460 105.6468 254.4686 15.08839392114926,6917.882,95.438,540.757,538.737,0.0
51990.0,STARLINK-3657,PAYLOAD,2024-04-04 00:25:42,15.0884094,0.0001398,53.2176,302.5143,103.0161,257.0987,0.00011622,1.562e-05,0.0,0 STARLINK-3657,1 51990U 22025AL  24095.01784816  .00001562  00000-0  11622-3 0  9999,2 51990  53.2176 302.5143 0001398 103.0161 257.0987 15.08840940116051,6917.878,95.437,540.71,538.775,0.0
51990.0,STARLINK-3657,PAYLOAD,2024-04-04 06:47:14,15.08841851,0.0001307,53.2172,301.3232,90.8017,269.3125,9.1298e-05,1.165e-05,0.0,0 STARLINK-3657,1 51990U 22025AL  24095.28280839  .00001165  00000-0  91298-4 0  9991,2 51990  53.2172 301.3232 0001307  90.8017 269.3125 15.08841851114999,6917.875,95.437,540.644,538.836,0.0
51990.0,STARLINK-3657,PAYLOAD,2024-04-04 19:30:20,15.08838257,0.0001335,53.2172,298.9438,85.2618,274.8527,9.568e-05,1.235e-05,0.0,0 STARLINK-3657,1 51990U 22025AL  24095.81273270  .00001235  00000-0  95680-4 0  9998,2 51990  53.2172 298.9438 0001335  85.2618 274.8527 15.08838257116179,6917.886,95.438,540.674,538.827,0.0
51990.0,STARLINK-3657,PAYLOAD,2024-04-04 21:05:43,15.08839623,0.0001337,53.2173,298.6464,83.764,276.3504,0.00010384,1.365e-05,0.0,0 STARLINK-3657,1 51990U 22025AL  24095.87897172  .00001365  00000-0  10384-3 0  9998,2 51990  53.2173 298.6464 0001337  83.7640 276.3504 15.08839623115085,6917.882,95.438,540.671,538.822,0.0
51990.0,STARLINK-3657,PAYLOAD,2024-04-05 12:59:34,15.08841627,0.0001415,53.2175,295.6735,84.3909,275.7245,9.2468e-05,1.184e-05,0.0,0 STARLINK-3657,1 51990U 22025AL  24096.54137081  .00001184  00000-0  92468-4 0  9992,2 51990  53.2175 295.6735 0001415  84.3909 275.7245 15.08841627115180,6917.875,95.437,540.719,538.762,0.0
51990.0,STARLINK-3657,PAYLOAD,2024-04-05 19:21:06,15.08842764,0.0001307,53.2165,294.4841,86.0719,274.0423,0.00010145,1.327e-05,0.0,0 STARLINK-3657,1 51990U 22025AL  24096.80632924  .00001327  00000-0  10145-3 0  9997,2 51990  53.2165 294.4841 0001307  86.0719 274.0423 15.08842764115220,6917.872,95.437,540.641,538.833,0.0
51990.0,STARLINK-3657,PAYLOAD,2024-04-06 12:50:21,15.08842554,0.000134,53.2166,291.2139,83.9013,276.2132,8.7614e-05,1.107e-05,0.0,0 STARLINK-3657,1 51990U 22025AL  24097.53496844  .00001107  00000-0  87614-4 0  9999,2 51990  53.2166 291.2139 0001340  83.9013 276.2132 15.08842554116438,6917.873,95.437,540.665,538.811,0.0
51990.0,STARLINK-3657,PAYLOAD,2024-04-06 22:22:39,15.08844338,0.0001358,53.2166,289.4297,83.4494,276.6653,7.4591e-05,9e-06,0.0,0 STARLINK-3657,1 51990U 22025AL  24097.93240687  .00000900  00000-0  74591-4 0  9995,2 51990  53.2166 289.4297 0001358  83.4494 276.6653 15.08844338115397,6917.867,95.437,540.672,538.793,0.0
51990.0,STARLINK-3657,PAYLOAD,2024-04-07 12:41:08,15.08838424,0.0001397,53.2158,286.7534,83.6276,276.4875,3.3758e-05,2.49e-06,0.0,0 STARLINK-3657,1 51990U 22025AL  24098.52857197  .00000249  00000-0  33758-4 0  9997,2 51990  53.2158 286.7534 0001397  83.6276 276.4875 15.08838424116580,6917.885,95.438,540.717,538.784,0.0
51990.0,STARLINK-3657,PAYLOAD,2024-04-07 19:02:41,15.08836871,0.0001425,53.2161,285.5617,94.2452,265.8703,9.5908e-05,1.239e-05,0.0,0 STARLINK-3657,1 51990U 22025AL  24098.79353158  .00001239  00000-0  95908-4 0  9999,2 51990  53.2161 285.5617 0001425  94.2452 265.8703 15.08836871115528,6917.89,95.438,540.741,538.769,0.0
51990.0,STARLINK-3657,PAYLOAD,2024-04-08 18:53:27,15.08843429,0.0001476,53.2136,281.1012,93.4962,266.6199,6.1965e-05,6.98e-06,0.0,0 STARLINK-3657,1 51990U 22025AL  24099.78712699  .00000698  00000-0  61965-4 0  9992,2 51990  53.2136 281.1012 0001476  93.4962 266.6199 15.08843429116777,6917.87,95.437,540.756,538.714,0.0
51990.0,STARLINK-3657,PAYLOAD,2024-04-08 22:04:14,15.08841169,0.0001541,53.2139,280.507,94.0401,266.0767,7.2235e-05,8.62e-06,0.0,0 STARLINK-3657,1 51990U 22025AL  24099.91960799  .00000862  00000-0  72235-4 0  9998,2 51990  53.2139 280.5070 0001541  94.0401 266.0767 15.08841169115699,6917.877,95.437,540.808,538.676,0.0
51990.0,STARLINK-3657,PAYLOAD,2024-04-09 12:22:42,15.08836599,0.0001569,53.2136,277.8306,94.2473,265.8698,4.3664e-05,4.07e-06,0.0,0 STARLINK-3657,1 51990U 22025AL  24100.51577281  .00000407  00000-0  43664-4 0  9996,2 51990  53.2136 277.8306 0001569  94.2473 265.8698 15.08836599116881,6917.891,95.438,540.841,538.67,0.0
51990.0,STARLINK-3657,PAYLOAD,2024-04-09 18:44:15,15.08838089,0.0001551,53.2132,276.6413,93.7346,266.3824,5.2555e-05,5.48e-06,0.0,0 STARLINK-3657,1 51990U 22025AL  24100.78073201  .00000548  00000-0  52555-4 0  9993,2 51990  53.2132 276.6413 0001551  93.7346 266.3824 15.08838089115823,6917.886,95.438,540.824,538.678,0.0
